OBJECT_NAME,OBJECT_ID,EPOCH,MEAN_MOTION,ECCENTRICITY,INCLINATION,RA_OF_ASC_NODE,ARG_OF_PERICENTER,MEAN_ANOMALY,EPHEMERIS_TYPE,CLASSIFICATION_TYPE,NORAD_CAT_ID,ELEMENT_SET_NO,REV_AT_EPOCH,BSTAR,MEAN_MOTION_DOT,MEAN_MOTION_DDOT
BEIDOU-2 IGSO-5 (C10),2011-073A,2026-06-10T18:51:33.119136,1.00274252,.01136979,47.6911,271.6265,221.6290,140.5292,0,U,37948,999,5307,0,-.166E-5,0
LUCH 5A (SDCM/PRN 140),2011-074B,2026-06-10T13:36:38.467296,1.00269771,.00022339,8.7363,73.9045,19.7038,176.4594,0,U,37951,999,5298,0,-.36E-6,0
BEIDOU-2 G5 (C05),2012-008A,2026-06-11T03:15:32.490144,1.00270547,.00092143,3.5573,69.7367,274.7413,22.5594,0,U,38091,999,5230,0,.73E-6,0
BEIDOU-2 M3 (C11),2012-018A,2026-06-08T14:20:11.344992,1.86230188,.00199662,55.7660,305.1650,274.7700,84.9929,0,U,38250,999,9578,0,-.57E-6,0
BEIDOU-2 M4 (C12),2012-018B,2026-06-09T14:29:07.108800,1.86229817,.00111465,55.6651,304.3456,277.0468,82.8157,0,U,38251,999,9580,0,-.6E-6,0
SES-5 (EGNOS/PRN 136),2012-036A,2026-06-10T16:44:16.060704,1.00271674,.00018481,0.0496,311.6239,129.2695,74.2159,0,U,38652,999,4439,0,.51E-6,0
BEIDOU-2 M6 (C14),2012-050B,2026-06-10T22:10:50.283840,1.86230876,.00138013,56.5389,63.1015,356.5359,3.4771,0,U,38775,999,9319,0,-.53E-6,0
GSAT-10 (GAGAN/PRN 128),2012-051B,2026-06-11T03:22:24.332160,1.00269517,.00077389,0.0162,339.0528,111.8500,302.2116,0,U,38779,999,5003,0,0,0
GPS BIIF-3  (PRN 24),2012-053A,2026-06-10T08:04:16.501440,2.00567339,.01798974,53.5847,143.8799,65.6609,296.2049,0,U,38833,999,9930,0,.1E-5,0
GSAT0103 (GALILEO-FM3),2012-055A,2026-06-10T10:28:39.251424,1.70473368,.00050269,55.8025,101.7308,304.3600,55.5599,0,U,38857,999,8489,0,.18E-6,0
BEIDOU-2 G6 (C02),2012-059A,2026-06-10T21:04:30.674784,1.00273719,.00098919,4.4041,73.5919,324.9536,260.8310,0,U,38953,999,4984,0,-.16E-5,0
LUCH 5B (SDCM/PRN 125),2012-061A,2026-06-10T23:28:44.789088,1.00273172,.00019402,10.4672,49.9410,141.4195,43.8723,0,U,38977,999,4954,0,-.127E-5,0
COSMOS 2485 (747),2013-019A,2026-06-07T01:19:59.278080,2.13103506,.00234642,65.4143,73.9444,234.9067,124.8959,0,U,39155,999,10206,0,-.9E-7,0
GPS BIIF-4  (PRN 27),2013-023A,2026-06-10T04:52:23.219328,2.00563466,.01415838,54.5096,269.2583,51.0187,310.2504,0,U,39166,999,9574,0,-.33E-6,0
IRNSS-1A,2013-034A,2026-05-22T20:37:38.469792,1.00280263,.00166187,35.6649,64.2334,185.3754,355.4646,0,U,39199,999,4711,0,.59E-6,0
GPS BIIF-5  (PRN 30),2014-008A,2026-06-11T04:50:37.246272,2.00559361,.00842436,53.6537,149.5638,231.1841,128.0659,0,U,39533,999,8956,0,.102E-5,0
ASTRA 5B (EGNOS/PRN 123),2014-011B,2026-06-11T04:48:06.755616,1.00270955,.00019123,0.0519,325.0301,103.4036,286.6346,0,U,39617,999,4460,0,.154E-5,0
COSMOS 2492 (754),2014-012A,2026-06-09T08:39:27.110016,2.13103521,.00104861,65.3026,314.2024,325.9791,33.9512,0,U,39620,999,9507,0,-.33E-6,0
IRNSS-1B,2014-017A,2026-06-10T18:41:19.254048,1.00274335,.00229797,28.9327,240.5136,189.5605,164.4642,0,U,39635,999,4472,0,.125E-5,0
LUCH 5V (SDCM/PRN 141),2014-023A,2026-06-11T03:25:46.509024,1.00266164,.00027583,5.1172,69.8130,37.8759,297.8784,0,U,39727,999,4429,0,-.252E-5,0
GPS BIIF-6  (PRN 06),2014-026A,2026-06-10T23:29:17.073312,2.00561372,.00382216,56.5014,331.7592,326.6599,33.1060,0,U,39741,999,8841,0,-.62E-6,0
COSMOS 2500 (755),2014-032A,2026-06-09T23:59:46.112928,2.13106100,.00071011,65.2367,313.9283,183.5969,176.3944,0,U,40001,999,9330,0,-.36E-6,0
GPS BIIF-7  (PRN 09),2014-045A,2026-06-10T01:45:22.340736,2.00557900,.0033003,55.3487,88.7484,118.3358,241.9880,0,U,40105,999,8593,0,-.8E-7,0
GSAT0201 (GALILEO 5),2014-050A,2026-06-09T07:58:17.347008,1.85520027,.16733008,48.8841,273.7586,179.0833,181.3092,0,U,40128,999,7817,0,-.53E-6,0
GSAT0202 (GALILEO 6),2014-050B,2026-06-09T14:06:18.101664,1.85520607,.16746766,48.9007,272.8335,179.8278,180.2807,0,U,40129,999,8034,0,-.52E-6,0
IRNSS-1C,2014-061A,2026-06-10T21:04:30.635904,1.00270328,.0022686,6.5024,89.0489,1.7061,207.6145,0,U,40269,999,4262,0,-.146E-5,0
GPS BIIF-8  (PRN 03),2014-068A,2026-06-10T22:34:44.527296,2.00575724,.00669153,56.9833,31.1954,70.3530,290.4228,0,U,40294,999,8508,0,-.63E-6,0
COSMOS 2501 (702K),2014-075A,2026-06-10T06:17:02.874912,2.13101499,.00225466,63.6159,190.6117,212.2305,147.7030,0,U,40315,999,8970,0,.117E-5,0
GPS BIIF-9  (PRN 26),2015-013A,2026-06-11T01:54:03.776832,2.00551724,.01093756,53.1684,204.4303,40.0978,320.7887,0,U,40534,999,8170,0,.94E-6,0
GSAT0203 (GALILEO 7),2015-017A,2026-06-08T09:56:18.112128,1.70476076,.00020951,56.7896,341.8347,280.5229,79.4690,0,U,40544,999,6905,0,-.63E-6,0
GSAT0204 (GALILEO 8),2015-017B,2026-06-09T20:13:58.530720,1.70475572,.00018782,56.7980,341.8144,250.6263,109.3692,0,U,40545,999,3212,0,-.63E-6,0
